Name,Region,Municipality,URL,Latitude,Longitude
Δημοτική Πλαζ Αλεξανδρούπολης,Π.Ε. ΕΒΡΟY [1],Δήμος Αλεξανδρούπολης,,,
Κρυονέρι,Π.Ε. ΡΟΔΟΠΗΣ [5],Δήμος Μαρωνείας-Σαπών,,40.9050302,25.4271089
Αρωγή,Π.Ε. ΡΟΔΟΠΗΣ [5],Δήμος Κομοτηνής,,40.9497844,25.1693347
Μέση,Π.Ε. ΡΟΔΟΠΗΣ [5],Δήμος Κομοτηνής,,40.9820068,25.2102581
Φανάρι/Camping,Π.Ε. ΡΟΔΟΠΗΣ [5],Δήμος Κομοτηνής,,,
Φανάρι/Ιουλία,Π.Ε. ΡΟΔΟΠΗΣ [5],Δήμος Κομοτηνής,,,
Άβδηρα/Πόρτο Μόλο,Π.Ε. ΞΑΝΘΗΣ [5],Δήμος Αβδήρων,,,
Λεύκιππος,Π.Ε. ΞΑΝΘΗΣ [5],Δήμος Αβδήρων,,40.9439692,24.9936344
Μάνδρα,Π.Ε. ΞΑΝΘΗΣ [5],Δήμος Αβδήρων,,40.9961854,24.9926518
Μυρωδάτο,Π.Ε. ΞΑΝΘΗΣ [5],Δήμος Αβδήρων,,40.9793278,24.9292868
Μάγγανα,Π.Ε. ΞΑΝΘΗΣ [5],Δήμος Τοπείρου,,40.9434383,24.8710529
Αμμόγλωσσα Κεραμωτή/Paralia Beach,Π.Ε. ΚΑΒΑΛΑΣ [9],Δήμος Νέστου,,,
Μπάτης,Π.Ε. ΚΑΒΑΛΑΣ [9],Δήμος Καβάλας,,40.9156834,24.379102
Περιγιάλι,Π.Ε. ΚΑΒΑΛΑΣ [9],Δήμος Καβάλας,,40.9482064,24.4300973
Τόσκα/Tosca Beach,Π.Ε. ΚΑΒΑΛΑΣ [9],Δήμος Καβάλας,,,
Αμμόλοφοι,Π.Ε. ΚΑΒΑΛΑΣ [9],Δήμος Παγγαίου,,40.8137798,24.2963507
Νέα Ηρακλείτσα,Π.Ε. ΚΑΒΑΛΑΣ [9],Δήμος Παγγαίου,,40.8654044,24.3165353
Νέα Πέραμος,Π.Ε. ΚΑΒΑΛΑΣ [9],Δήμος Παγγαίου,,40.841819,24.3055829
Σαρακήνα,Π.Ε. ΚΑΒΑΛΑΣ [9],Δήμος Παγγαίου,,,
Οφρύνιο/Τούζλα,Π.Ε. ΚΑΒΑΛΑΣ [9],Δήμος Παγγαίου,,,
Θάσος Πόλη/Λιμανάκι,Π.Ε. ΘΑΣΟΥ [5],Δήμος Θάσου,,,
Μακρύαμμος,Π.Ε. ΘΑΣΟΥ [5],Δήμος Θάσου,,40.770521,24.7248198
Πευκάρι 2/Alexandra Beach,Π.Ε. ΘΑΣΟΥ [5],Δήμος Θάσου,,,
Πρίνος Δασύλιο 2/Ilio Mare Beach,Π.Ε. ΘΑΣΟΥ [5],Δήμος Θάσου,,,
Χρυσή Αμμουδιά/Golden Beach Camping,Π.Ε. ΘΑΣΟΥ [5],Δήμος Θάσου,,,
Ασπροβάλτα,Π.Ε. ΘΕΣΣΑΛΟΝΙΚΗΣ [13],Δήμος Βόλβης,,40.722262,23.707208
Νέα Βρασνά,Π.Ε. ΘΕΣΣΑΛΟΝΙΚΗΣ [13],Δήμος Βόλβης,,40.7076405,23.7001589
Παραλία Βρασνών,Π.Ε. ΘΕΣΣΑΛΟΝΙΚΗΣ [13],Δήμος Βόλβης,,40.6903309,23.6940579
Πόρτο Φίνο,Π.Ε. ΘΕΣΣΑΛΟΝΙΚΗΣ [13],Δήμος Βόλβης,,,
Σερραϊκή Ακτή,Π.Ε. ΘΕΣΣΑΛΟΝΙΚΗΣ [13],Δήμος Βόλβης,,40.7445934,23.7283117
Σταυρός Ανατολική,Π.Ε. ΘΕΣΣΑΛΟΝΙΚΗΣ [13],Δήμος Βόλβης,,,
Σταυρός Δυτική,Π.Ε. ΘΕΣΣΑΛΟΝΙΚΗΣ [13],Δήμος Βόλβης,,,
Σταυρός Κεντρική,Π.Ε. ΘΕΣΣΑΛΟΝΙΚΗΣ [13],Δήμος Βόλβης,,,
Αγ. Τριάδα/ΠΙΚΠΑ,Π.Ε. ΘΕΣΣΑΛΟΝΙΚΗΣ [13],Δήμος Θερμαϊκού,,,
Μηχανιώνα-Τουρμπαλί,Π.Ε. ΘΕΣΣΑΛΟΝΙΚΗΣ [13],Δήμος Θερμαϊκού,,,
Νέοι Επιβάτες,Π.Ε. ΘΕΣΣΑΛΟΝΙΚΗΣ [13],Δήμος Θερμαϊκού,,40.5006773,22.9095066
Περαία-Κοχύλι,Π.Ε. ΘΕΣΣΑΛΟΝΙΚΗΣ [13],Δήμος Θερμαϊκού,,,
Περαία-Πλατεία Μνήμης,Π.Ε. ΘΕΣΣΑΛΟΝΙΚΗΣ [13],Δήμος Θερμαϊκού,,,
Αγ. Παύλος/Alexandros Palace Hotel,Π.Ε. ΧΑΛΚΙΔΙΚΗΣ [93],Δήμος Αριστοτέλη,,,
Αλυκές,Π.Ε. ΧΑΛΚΙΔΙΚΗΣ [93],Δήμος Αριστοτέλη,,40.3203957,23.9154751
Ιερισσός/ Δημοτική 1,Π.Ε. ΧΑΛΚΙΔΙΚΗΣ [93],Δήμος Αριστοτέλη,,40.4058759,23.8742516
Ιερισσός/ Δημοτική 2,Π.Ε. ΧΑΛΚΙΔΙΚΗΣ [93],Δήμος Αριστοτέλη,,40.4025156,23.8785323
Ιερισσός/ Δημοτική 3,Π.Ε. ΧΑΛΚΙΔΙΚΗΣ [93],Δήμος Αριστοτέλη,,40.3996084,23.8825407
Κάμπος,Π.Ε. ΧΑΛΚΙΔΙΚΗΣ [93],Δήμος Αριστοτέλη,,40.3508288,23.7311597
Καμπούδι 1/Ακτή Ουρανούπολη,Π.Ε. ΧΑΛΚΙΔΙΚΗΣ [93],Δήμος Αριστοτέλη,,40.3472721,23.9624083
Καμπούδι 2/Θεοξένια,Π.Ε. ΧΑΛΚΙΔΙΚΗΣ [93],Δήμος Αριστοτέλη,,40.3461918,23.9639274
Καμπούδι 3/Άκραθως,Π.Ε. ΧΑΛΚΙΔΙΚΗΣ [93],Δήμος Αριστοτέλη,,,
Κομίτσα,Π.Ε. ΧΑΛΚΙΔΙΚΗΣ [93],Δήμος Αριστοτέλη,,40.3775759,23.9647058
Mount Athos Ιερισσού,Π.Ε. ΧΑΛΚΙΔΙΚΗΣ [93],Δήμος Αριστοτέλη,,,
Νέα Ρόδα 2,Π.Ε. ΧΑΛΚΙΔΙΚΗΣ [93],Δήμος Αριστοτέλη,,40.3815557,23.9234575
Ολυμπιάδα,Π.Ε. ΧΑΛΚΙΔΙΚΗΣ [93],Δήμος Αριστοτέλη,,40.5914415,23.7832144
Ουρανούπολη 2/Eagles Palace,Π.Ε. ΧΑΛΚΙΔΙΚΗΣ [93],Δήμος Αριστοτέλη,,,
Ουρανούπολη 3/Aristoteles,Π.Ε. ΧΑΛΚΙΔΙΚΗΣ [93],Δήμος Αριστοτέλη,,40.3482657,23.9609858
Πόρτο Άγιο/Agionissi Resort,Π.Ε. ΧΑΛΚΙΔΙΚΗΣ [93],Δήμος Αριστοτέλη,,,
Αρμενιστής,Π.Ε. ΧΑΛΚΙΔΙΚΗΣ [93],Δήμος Σιθωνίας,,40.1577238,23.9157698
Ελαιών,Π.Ε. ΧΑΛΚΙΔΙΚΗΣ [93],Δήμος Σιθωνίας,,,
Ελιά 2/Anthemus,Π.Ε. ΧΑΛΚΙΔΙΚΗΣ [93],Δήμος Σιθωνίας,,,
Ελιά/Acrotel,Π.Ε. ΧΑΛΚΙΔΙΚΗΣ [93],Δήμος Σιθωνίας,,40.1491136,23.731586
Καλογριάς,Π.Ε. ΧΑΛΚΙΔΙΚΗΣ [93],Δήμος Σιθωνίας,,40.1766426,23.7154694
Λαγομάνδρα/Lagomandra Beach Hotel,Π.Ε. ΧΑΛΚΙΔΙΚΗΣ [93],Δήμος Σιθωνίας,,40.1367778,23.7472714
Λιβροχιό 1,Π.Ε. ΧΑΛΚΙΔΙΚΗΣ [93],Δήμος Σιθωνίας,,40.2388815,23.7233463
Μακριά Λαγκάδα/Porfi Beach,Π.Ε. ΧΑΛΚΙΔΙΚΗΣ [93],Δήμος Σιθωνίας,,,
Μαρμαράς,Π.Ε. ΧΑΛΚΙΔΙΚΗΣ [93],Δήμος Σιθωνίας,,40.3465437,23.6820753
Νικήτη 2,Π.Ε. ΧΑΛΚΙΔΙΚΗΣ [93],Δήμος Σιθωνίας,,40.2481387,23.6938331
Παράδεισος,Π.Ε. ΧΑΛΚΙΔΙΚΗΣ [93],Δήμος Σιθωνίας,,40.1029165,23.7769865
Πλατανίτσι,Π.Ε. ΧΑΛΚΙΔΙΚΗΣ [93],Δήμος Σιθωνίας,,40.1175839,23.9762954
Πόρτο Καρράς 1/Κόχη,Π.Ε. ΧΑΛΚΙΔΙΚΗΣ [93],Δήμος Σιθωνίας,,,
Πόρτο Καρράς 2/Σιθωνία Μελίτων,Π.Ε. ΧΑΛΚΙΔΙΚΗΣ [93],Δήμος Σιθωνίας,,,
Σαλονικιού,Π.Ε. ΧΑΛΚΙΔΙΚΗΣ [93],Δήμος Σιθωνίας,,40.2964092,23.6944168
Σάρτι 1,Π.Ε. ΧΑΛΚΙΔΙΚΗΣ [93],Δήμος Σιθωνίας,,40.0950542,23.9783591
Συκιά,Π.Ε. ΧΑΛΚΙΔΙΚΗΣ [93],Δήμος Σιθωνίας,,40.0387857,23.9417027
Τορώνη,Π.Ε. ΧΑΛΚΙΔΙΚΗΣ [93],Δήμος Σιθωνίας,,39.9845242,23.9048217
Γερακινή,Π.Ε. ΧΑΛΚΙΔΙΚΗΣ [93],Δήμος Πολυγύρου,,40.279738,23.4443034
Γερακινή/Ikos Olivia,Π.Ε. ΧΑΛΚΙΔΙΚΗΣ [93],Δήμος Πολυγύρου,,,
Καλύβες,Π.Ε. ΧΑΛΚΙΔΙΚΗΣ [93],Δήμος Πολυγύρου,,40.2858445,23.3893177
Μεταμόρφωση,Π.Ε. ΧΑΛΚΙΔΙΚΗΣ [93],Δήμος Πολυγύρου,,40.2290166,23.6036729
Σαργκάνι/Blue Dolphin,Π.Ε. ΧΑΛΚΙΔΙΚΗΣ [93],Δήμος Πολυγύρου,,,
Ψακούδια Ανατολικά,Π.Ε. ΧΑΛΚΙΔΙΚΗΣ [93],Δήμος Πολυγύρου,,,
Ψακούδια Δυτικά,Π.Ε. ΧΑΛΚΙΔΙΚΗΣ [93],Δήμος Πολυγύρου,,,
Άθυτος/Afitis Hotel,Π.Ε. ΧΑΛΚΙΔΙΚΗΣ [93],Δήμος Κασσάνδρας,,,
Άθυτος/Βάρκες,Π.Ε. ΧΑΛΚΙΔΙΚΗΣ [93],Δήμος Κασσάνδρας,,,
Ελάνη,Π.Ε. ΧΑΛΚΙΔΙΚΗΣ [93],Δήμος Κασσάνδρας,,40.0500727,23.3522496
Καλλιθέα/Άμμων Ζευς,Π.Ε. ΧΑΛΚΙΔΙΚΗΣ [93],Δήμος Κασσάνδρας,,,
Καλλιθέα-Δημοτικό Αναψυκτήριο,Π.Ε. ΧΑΛΚΙΔΙΚΗΣ [93],Δήμος Κασσάνδρας,,,
Κάνιστρο/Miraggio,Π.Ε. ΧΑΛΚΙΔΙΚΗΣ [93],Δήμος Κασσάνδρας,,,
Κοινοτική Πλαζ Νέας Σκιώνης,Π.Ε. ΧΑΛΚΙΔΙΚΗΣ [93],Δήμος Κασσάνδρας,,,
Κρυοπηγή 2/Alexander Τhe Great Beach Hotel,Π.Ε. ΧΑΛΚΙΔΙΚΗΣ [93],Δήμος Κασσάνδρας,,,
Κρυοπηγή 4/Kassandra Palace,Π.Ε. ΧΑΛΚΙΔΙΚΗΣ [93],Δήμος Κασσάνδρας,,,
Κρυοπηγή Δημοτικό Αναψυκτήριο,Π.Ε. ΧΑΛΚΙΔΙΚΗΣ [93],Δήμος Κασσάνδρας,,,
Λουτρά Αγίας Παρασκευής,Π.Ε. ΧΑΛΚΙΔΙΚΗΣ [93],Δήμος Κασσάνδρας,,,
Μένδη Καλάνδρα,Π.Ε. ΧΑΛΚΙΔΙΚΗΣ [93],Δήμος Κασσάνδρας,,39.9637835,23.4222847
Μόλα Καλύβα,Π.Ε. ΧΑΛΚΙΔΙΚΗΣ [93],Δήμος Κασσάνδρας,,,
Παλιούρι Κάνιστρο,Π.Ε. ΧΑΛΚΙΔΙΚΗΣ [93],Δήμος Κασσάνδρας,,,
Πευκοχώρι Yalla-Flegra,Π.Ε. ΧΑΛΚΙΔΙΚΗΣ [93],Δήμος Κασσάνδρας,,39.9881766,23.62394
Πευκοχώρι-Fyki Beach,Π.Ε. ΧΑΛΚΙΔΙΚΗΣ [93],Δήμος Κασσάνδρας,,,
Πολύχρονο 3,Π.Ε. ΧΑΛΚΙΔΙΚΗΣ [93],Δήμος Κασσάνδρας,,40.0155467,23.5299035
Πολύχρονο/Azur Hotel,Π.Ε. ΧΑΛΚΙΔΙΚΗΣ [93],Δήμος Κασσάνδρας,,,
Πολύχρονο-Cocones Beach,Π.Ε. ΧΑΛΚΙΔΙΚΗΣ [93],Δήμος Κασσάνδρας,,,
Ποσείδι/Possidi Holidays Resort,Π.Ε. ΧΑΛΚΙΔΙΚΗΣ [93],Δήμος Κασσάνδρας,,,
Ποσείδι Pohonda,Π.Ε. ΧΑΛΚΙΔΙΚΗΣ [93],Δήμος Κασσάνδρας,,,
Ποσείδι Κέντρο,Π.Ε. ΧΑΛΚΙΔΙΚΗΣ [93],Δήμος Κασσάνδρας,,,
Ποσείδι/Cocus,Π.Ε. ΧΑΛΚΙΔΙΚΗΣ [93],Δήμος Κασσάνδρας,,,
Ποσείδι-Αιγαιοπελαγήτικα,Π.Ε. ΧΑΛΚΙΔΙΚΗΣ [93],Δήμος Κασσάνδρας,,,
Σάνη 2/Sani Beach,Π.Ε. ΧΑΛΚΙΔΙΚΗΣ [93],Δήμος Κασσάνδρας,,,
Σάνη 3/Sani Club,Π.Ε. ΧΑΛΚΙΔΙΚΗΣ [93],Δήμος Κασσάνδρας,,,
Σάνη Αστερίας,Π.Ε. ΧΑΛΚΙΔΙΚΗΣ [93],Δήμος Κασσάνδρας,,,
Sani Dunes,Π.Ε. ΧΑΛΚΙΔΙΚΗΣ [93],Δήμος Κασσάνδρας,,40.0963701,23.3136091
Σίβηρη Κέντρο,Π.Ε. ΧΑΛΚΙΔΙΚΗΣ [93],Δήμος Κασσάνδρας,,,
Φούρκα,Π.Ε. ΧΑΛΚΙΔΙΚΗΣ [93],Δήμος Κασσάνδρας,,40.0055027,23.4153051
Χανιώτη 1,Π.Ε. ΧΑΛΚΙΔΙΚΗΣ [93],Δήμος Κασσάνδρας,,40.0010968,23.5751885
Χανιώτη 3/Domes Noruz Kassandra,Π.Ε. ΧΑΛΚΙΔΙΚΗΣ [93],Δήμος Κασσάνδρας,,,
Βεργιά,Π.Ε. ΧΑΛΚΙΔΙΚΗΣ [93],Δήμος Νέας Προποντίδας,,40.2918367,23.134625
Γεωπονικά-Μυκονιάτικα,Π.Ε. ΧΑΛΚΙΔΙΚΗΣ [93],Δήμος Νέας Προποντίδας,,40.3033523,23.1051721
Διονυσίου,Π.Ε. ΧΑΛΚΙΔΙΚΗΣ [93],Δήμος Νέας Προποντίδας,,40.2745217,23.2716286
Ελαιώνας/Ikos Oceania,Π.Ε. ΧΑΛΚΙΔΙΚΗΣ [93],Δήμος Νέας Προποντίδας,,,
Μουριές,Π.Ε. ΧΑΛΚΙΔΙΚΗΣ [93],Δήμος Νέας Προποντίδας,,40.2511311,23.2362475
Νέα Ηράκλεια,Π.Ε. ΧΑΛΚΙΔΙΚΗΣ [93],Δήμος Νέας Προποντίδας,,40.3462146,23.0151713
Νέα Ηράκλεια-Σαχάρα,Π.Ε. ΧΑΛΚΙΔΙΚΗΣ [93],Δήμος Νέας Προποντίδας,,,
Νέα Καλλικράτεια,Π.Ε. ΧΑΛΚΙΔΙΚΗΣ [93],Δήμος Νέας Προποντίδας,,40.3106575,23.0628792
Νέα Μουδανιά,Π.Ε. ΧΑΛΚΙΔΙΚΗΣ [93],Δήμος Νέας Προποντίδας,,40.239881,23.2853943
Νέα Πλάγια,Π.Ε. ΧΑΛΚΙΔΙΚΗΣ [93],Δήμος Νέας Προποντίδας,,40.2647455,23.2020512
Νέα Ποτίδαια Προποντίδας,Π.Ε. ΧΑΛΚΙΔΙΚΗΣ [93],Δήμος Νέας Προποντίδας,,40.1943084,23.3278856
Νέα Ποτίδαια/Portes Beach,Π.Ε. ΧΑΛΚΙΔΙΚΗΣ [93],Δήμος Νέας Προποντίδας,,,
Νέα Ποτίδαια-Ανατολικά Διώρυγας Τορωναίου,Π.Ε. ΧΑΛΚΙΔΙΚΗΣ [93],Δήμος Νέας Προποντίδας,,,
Πορταριά,Π.Ε. ΧΑΛΚΙΔΙΚΗΣ [93],Δήμος Νέας Προποντίδας,,40.2841119,23.2958533
Πόρτες/Portes Lithos,Π.Ε. ΧΑΛΚΙΔΙΚΗΣ [93],Δήμος Νέας Προποντίδας,,40.2178181,23.3170998
Ρόα/Pomegranate Wellness Spa & Potidea Palace,Π.Ε. ΧΑΛΚΙΔΙΚΗΣ [93],Δήμος Νέας Προποντίδας,,,
Σωζόπολη Κέντρο,Π.Ε. ΧΑΛΚΙΔΙΚΗΣ [93],Δήμος Νέας Προποντίδας,,,
Σωζόπολη/Ναυτίλος,Π.Ε. ΧΑΛΚΙΔΙΚΗΣ [93],Δήμος Νέας Προποντίδας,,,
Τρίγλια,Π.Ε. ΧΑΛΚΙΔΙΚΗΣ [93],Δήμος Νέας Προποντίδας,,40.3058387,23.207498
Φλογητά,Π.Ε. ΧΑΛΚΙΔΙΚΗΣ [93],Δήμος Νέας Προποντίδας,,40.2599201,23.2214367
Καλλιθέα,Π.Ε. ΠΙΕΡΙΑΣ [15],Δήμος Κατερίνης,,40.2744058,22.5776634
Καλλιθέα/Mediterranean Village,Π.Ε. ΠΙΕΡΙΑΣ [15],Δήμος Κατερίνης,,,
Κορινός,Π.Ε. ΠΙΕΡΙΑΣ [15],Δήμος Κατερίνης,,40.315468,22.5880359
Ολυμπιακή Ακτή,Π.Ε. ΠΙΕΡΙΑΣ [15],Δήμος Κατερίνης,,40.2402326,22.5849354
Παραλία,Π.Ε. ΠΙΕΡΙΑΣ [15],Δήμος Κατερίνης,,40.2676999,22.5965157
Περίσταση,Π.Ε. ΠΙΕΡΙΑΣ [15],Δήμος Κατερίνης,,40.2749609,22.5420459
Βαρικό,Π.Ε. ΠΙΕΡΙΑΣ [15],Δήμος Δίου-Ολύμπου,,,
Λεπτοκαρυά,Π.Ε. ΠΙΕΡΙΑΣ [15],Δήμος Δίου-Ολύμπου,,40.0591805,22.5638631
Λεπτοκαρυά 2,Π.Ε. ΠΙΕΡΙΑΣ [15],Δήμος Δίου-Ολύμπου,,40.0591805,22.5638631
Λιτόχωρο,Π.Ε. ΠΙΕΡΙΑΣ [15],Δήμος Δίου-Ολύμπου,,40.1024494,22.5018169
Νέοι Πόροι,Π.Ε. ΠΙΕΡΙΑΣ [15],Δήμος Δίου-Ολύμπου,,39.9761052,22.6383557
Ν.Παντελεήμονας-Σκοτίνα,Π.Ε. ΠΙΕΡΙΑΣ [15],Δήμος Δίου-Ολύμπου,,,
Ν.Παντελεήμονας-Σκοτίνα 2,Π.Ε. ΠΙΕΡΙΑΣ [15],Δήμος Δίου-Ολύμπου,,,
Πλάκα,Π.Ε. ΠΙΕΡΙΑΣ [15],Δήμος Δίου-Ολύμπου,,40.0967712,22.5553839
Πλαταμώνας,Π.Ε. ΠΙΕΡΙΑΣ [15],Δήμος Δίου-Ολύμπου,,39.9925894,22.6233457
Νέα Μεσάγγαλα 1,Π.Ε. ΛΑΡΙΣΑΣ [3],Δήμος Τεμπών,,39.9510798,22.7078128
Νέα Μεσάγγαλα 2,Π.Ε. ΛΑΡΙΣΑΣ [3],Δήμος Τεμπών,,39.9510798,22.7078128
Νέα Μεσάγγαλα 3,Π.Ε. ΛΑΡΙΣΑΣ [3],Δήμος Τεμπών,,39.9510798,22.7078128
Αγριά/Valis Resort,Π.Ε. ΜΑΓΝΗΣΙΑΣ [18],Δήμος Βόλου,,,
Αλυκές,Π.Ε. ΜΑΓΝΗΣΙΑΣ [18],Δήμος Βόλου,,39.3388358,22.9283788
Αμαρυλλίδος,Π.Ε. ΜΑΓΝΗΣΙΑΣ [18],Δήμος Βόλου,,,
Αμφανών,Π.Ε. ΜΑΓΝΗΣΙΑΣ [18],Δήμος Βόλου,,39.3078899,22.9374694
Άναυρος,Π.Ε. ΜΑΓΝΗΣΙΑΣ [18],Δήμος Βόλου,,39.3656784,22.9708242
Θωμάς Σουτραλί Αγριάς,Π.Ε. ΜΑΓΝΗΣΙΑΣ [18],Δήμος Βόλου,,,
Καρνάγιο,Π.Ε. ΜΑΓΝΗΣΙΑΣ [18],Δήμος Βόλου,,39.3191835,23.0168187
Κριθαριά,Π.Ε. ΜΑΓΝΗΣΙΑΣ [18],Δήμος Βόλου,,39.2960162,22.90548
Νέα Αγχίαλος,Π.Ε. ΜΑΓΝΗΣΙΑΣ [18],Δήμος Βόλου,,39.280167,22.8186102
Πλάκες,Π.Ε. ΜΑΓΝΗΣΙΑΣ [18],Δήμος Βόλου,,39.2913688,22.903177
Πλατανίδια,Π.Ε. ΜΑΓΝΗΣΙΑΣ [18],Δήμος Βόλου,,39.3153139,23.0488044
Χρυσή Ακτή Παναγιάς,Π.Ε. ΜΑΓΝΗΣΙΑΣ [18],Δήμος Βόλου,,39.2885749,22.8573916
Αλμυρός,Π.Ε. ΜΑΓΝΗΣΙΑΣ [18],Δήμος Αλμυρού,,39.1807614,22.7609792
Αμαλιάπολη,Π.Ε. ΜΑΓΝΗΣΙΑΣ [18],Δήμος Αλμυρού,,39.1673122,22.8890096
Αχίλλειος,Π.Ε. ΜΑΓΝΗΣΙΑΣ [18],Δήμος Αλμυρού,,,
Λεύκη Πτελεού,Π.Ε. ΜΑΓΝΗΣΙΑΣ [18],Δήμος Αλμυρού,,,
Λουτρό Πτελεού,Π.Ε. ΜΑΓΝΗΣΙΑΣ [18],Δήμος Αλμυρού,,39.0337545,22.9648107
Νηες Σούρπης,Π.Ε. ΜΑΓΝΗΣΙΑΣ [18],Δήμος Αλμυρού,,39.1211794,22.9157281
Αγ. Παρασκευή-Πλατανιάς,Π.Ε. ΣΠΟΡΑΔΩΝ [17],Δήμος Σκιάθου,,,
Αμπελάκια/Elivi,Π.Ε. ΣΠΟΡΑΔΩΝ [17],Δήμος Σκιάθου,,,
Ασέληνος,Π.Ε. ΣΠΟΡΑΔΩΝ [17],Δήμος Σκιάθου,,39.1733156,23.4249591
Αχλαδιές,Π.Ε. ΣΠΟΡΑΔΩΝ [17],Δήμος Σκιάθου,,39.1469084,23.4639905
Βασιλιάς,Π.Ε. ΣΠΟΡΑΔΩΝ [17],Δήμος Σκιάθου,,,
Βρομόλιμνος,Π.Ε. ΣΠΟΡΑΔΩΝ [17],Δήμος Σκιάθου,,39.1365233,23.4461883
Γούρνες Ελιά,Π.Ε. ΣΠΟΡΑΔΩΝ [17],Δήμος Σκιάθου,,,
Καναπίτσα,Π.Ε. ΣΠΟΡΑΔΩΝ [17],Δήμος Σκιάθου,,39.1382555,23.4580441
Κουκουναριές,Π.Ε. ΣΠΟΡΑΔΩΝ [17],Δήμος Σκιάθου,,39.1527351,23.4061208
Μάραθα/Skiathos Palace Hotel,Π.Ε. ΣΠΟΡΑΔΩΝ [17],Δήμος Σκιάθου,,,
Μεγάλη Αμμος,Π.Ε. ΣΠΟΡΑΔΩΝ [17],Δήμος Σκιάθου,,,
Μεγάλη Μπανάνα/Elivi,Π.Ε. ΣΠΟΡΑΔΩΝ [17],Δήμος Σκιάθου,,,
Μικρή Μπανάνα,Π.Ε. ΣΠΟΡΑΔΩΝ [17],Δήμος Σκιάθου,,39.1467790, 23.3926055
Τζανεριά,Π.Ε. ΣΠΟΡΑΔΩΝ [17],Δήμος Σκιάθου,,39.1395566,23.457533
Τρούλος,Π.Ε. ΣΠΟΡΑΔΩΝ [17],Δήμος Σκιάθου,,39.1400843,23.4205301
Αντρίνα/Adrina Beach,Π.Ε. ΣΠΟΡΑΔΩΝ [17],Δήμος Σκοπέλου,,,
Αντρίνα/Adrina Resort,Π.Ε. ΣΠΟΡΑΔΩΝ [17],Δήμος Σκοπέλου,,,
Γλύφα,Π.Ε. ΦΘΙΩΤΙΔΑΣ [7],Δήμος Στυλίδας,,38.9531109,22.9666015
Καμένα Βούρλα/Mitsis Galini,Π.Ε. ΦΘΙΩΤΙΔΑΣ [7],Δήμος Μώλου-Αγίου Κωνσταντίνου,,,
Βλυχάδα,Π.Ε. ΦΘΙΩΤΙΔΑΣ [7],Δήμος Λοκρών,,38.5827737,23.2987351
Λιβανάτες 1/Κυανή,Π.Ε. ΦΘΙΩΤΙΔΑΣ [7],Δήμος Λοκρών,,,
Λιβανάτες,Π.Ε. ΦΘΙΩΤΙΔΑΣ [7],Δήμος Λοκρών,,38.1447307, 24.0353823 
Λιβριχιό,Π.Ε. ΦΘΙΩΤΙΔΑΣ [7],Δήμος Λοκρών,,,
Σκάλα Αταλάντης,Π.Ε. ΦΘΙΩΤΙΔΑΣ [7],Δήμος Λοκρών,,38.6713704,23.0710584
Αγ. Νικόλαος,Π.Ε. ΦΩΚΙΔΑΣ [14],Δήμος Δωρίδος,,38.3489629,22.1593308
Βάθη,Π.Ε. ΦΩΚΙΔΑΣ [14],Δήμος Δωρίδος,,38.3361328,22.1921517
Γλυφάδα,Π.Ε. ΦΩΚΙΔΑΣ [14],Δήμος Δωρίδος,,38.3813831,22.0766602
Ερατεινή,Π.Ε. ΦΩΚΙΔΑΣ [14],Δήμος Δωρίδος,,38.3597968,22.2292598
Μαραθιάς,Π.Ε. ΦΩΚΙΔΑΣ [14],Δήμος Δωρίδος,,38.3942932,22.0175375
Μοναστηράκι,Π.Ε. ΦΩΚΙΔΑΣ [14],Δήμος Δωρίδος,,38.4071208,21.9444736
Σεργούλα,Π.Ε. ΦΩΚΙΔΑΣ [14],Δήμος Δωρίδος,,38.4151777,22.0569929
Σκάλωμα,Π.Ε. ΦΩΚΙΔΑΣ [14],Δήμος Δωρίδος,,38.4000582,21.9944881
Χιλιαδού,Π.Ε. ΦΩΚΙΔΑΣ [14],Δήμος Δωρίδος,,38.3900228,21.9166085
Άγιοι Πάντες,Π.Ε. ΦΩΚΙΔΑΣ [14],Δήμος Δελφών,,38.3680386,22.2950239
Βραχάκια,Π.Ε. ΦΩΚΙΔΑΣ [14],Δήμος Δελφών,,38.4251898,22.4574099
Καλαφάτης,Π.Ε. ΦΩΚΙΔΑΣ [14],Δήμος Δελφών,,38.385995,22.3755622
Μαϊάμι,Π.Ε. ΦΩΚΙΔΑΣ [14],Δήμος Δελφών,,,
Τροκαντερό-Αγκάλη,Π.Ε. ΦΩΚΙΔΑΣ [14],Δήμος Δελφών,,,
Αγ. Ισίδωρος,Π.Ε. ΒΟΙΩΤΙΑΣ [2],Δήμος Διστόμου-Αράχοβας-Αντίκυρας,,38.3749589,22.6275245
Πλάκα Δηλεσίου,Π.Ε. ΒΟΙΩΤΙΑΣ [2],Δήμος Τανάγρας,,,
Αλυκές Δροσιάς,Π.Ε. ΕΥΒΟΙΑΣ [6],Δήμος Χαλκιδέων,,38.4984269,23.5325985
Αστέρια Χαλκίδας,Π.Ε. ΕΥΒΟΙΑΣ [6],Δήμος Χαλκιδέων,,38.4662968, 23.5878938
Λευκαντί,Π.Ε. ΕΥΒΟΙΑΣ [6],Δήμος Χαλκιδέων,,38.4113777,23.6755992
Venus,Π.Ε. ΕΥΒΟΙΑΣ [6],Δήμος Καρύστου,,38.1639014,24.2110429
Κοκκίνι,Π.Ε. ΕΥΒΟΙΑΣ [6],Δήμος Καρύστου,,,
Κρεμάλα,Π.Ε. ΕΥΒΟΙΑΣ [6],Δήμος Καρύστου,,38.0119463,24.4102123
Λουτράκι-Μπούτσι/Poseidon Resort,Π.Ε. ΚΟΡΙΝΘΙΑΣ [15],Δήμος Λουτρακίου - Περαχώρας - Αγίων Θεοδώρων,,,
Λουτράκι 1,Π.Ε. ΚΟΡΙΝΘΙΑΣ [15],Δήμος Λουτρακίου - Περαχώρας - Αγίων Θεοδώρων,,37.9743673,22.9777228
Λουτράκι 2,Π.Ε. ΚΟΡΙΝΘΙΑΣ [15],Δήμος Λουτρακίου - Περαχώρας - Αγίων Θεοδώρων,,37.9743673,22.9777228
Πευκάκια-Άγιοι Θεόδωροι,Π.Ε. ΚΟΡΙΝΘΙΑΣ [15],Δήμος Λουτρακίου - Περαχώρας - Αγίων Θεοδώρων,,,
Αλμυρή,Π.Ε. ΚΟΡΙΝΘΙΑΣ [15],Δήμος Κορινθίων,,37.8471196,23.0010495
Καλάμια,Π.Ε. ΚΟΡΙΝΘΙΑΣ [15],Δήμος Κορινθίων,,37.938317,22.9175835
Κόρφος,Π.Ε. ΚΟΡΙΝΘΙΑΣ [15],Δήμος Κορινθίων,,37.7650766,23.1239335
Λέχαιο,Π.Ε. ΚΟΡΙΝΘΙΑΣ [15],Δήμος Κορινθίων,,37.9352428,22.8443589
Ποσειδωνία,Π.Ε. ΚΟΡΙΝΘΙΑΣ [15],Δήμος Κορινθίων,,37.9460821,22.9579811
Βραχάτι,Π.Ε. ΚΟΡΙΝΘΙΑΣ [15],Δήμος Βέλου-Βόχας,,37.954835,22.8036358
Κοκκώνι,Π.Ε. ΚΟΡΙΝΘΙΑΣ [15],Δήμος Βέλου-Βόχας,,37.9689241,22.7783307
Πευκιάς,Π.Ε. ΚΟΡΙΝΘΙΑΣ [15],Δήμος Σικυωνίων,,,
Δερβένι,Π.Ε. ΚΟΡΙΝΘΙΑΣ [15],Δήμος Ξυλοκάστρου - Ευρωστίνης,,38.1353423,22.427006
Ξυλόκαστρο-Πευκιάς,Π.Ε. ΚΟΡΙΝΘΙΑΣ [15],Δήμος Ξυλοκάστρου - Ευρωστίνης,,,
Συκιά,Π.Ε. ΚΟΡΙΝΘΙΑΣ [15],Δήμος Ξυλοκάστρου - Ευρωστίνης,,38.0630665,22.6582427
Καραθώνα,Π.Ε. ΑΡΓΟΛΙΔΑΣ [4],Δήμος Ναυπλιέων,,37.5418353,22.8229743
Κονδύλι,Π.Ε. ΑΡΓΟΛΙΔΑΣ [4],Δήμος Ναυπλιέων,,37.5223214,22.9354549
Πλάκα,Π.Ε. ΑΡΓΟΛΙΔΑΣ [4],Δήμος Ναυπλιέων,,37.529716,22.8834214
Τολό,Π.Ε. ΑΡΓΟΛΙΔΑΣ [4],Δήμος Ναυπλιέων,,37.5211393,22.8597875
Άγιος Ανδρέας,Π.Ε. ΑΡΚΑΔΙΑΣ [4],Δήμος Βόρειας Κυνουρίας,,37.3446459,22.7643786
Ατσίγγανος,Π.Ε. ΑΡΚΑΔΙΑΣ [4],Δήμος Βόρειας Κυνουρίας,,37.4252406,22.7643323
Καλλιστώ,Π.Ε. ΑΡΚΑΔΙΑΣ [4],Δήμος Βόρειας Κυνουρίας,,37.4128794,22.762106
Ξηροπήγαδο,Π.Ε. ΑΡΚΑΔΙΑΣ [4],Δήμος Βόρειας Κυνουρίας,,37.4786788,22.7301128
Αρχάγγελος,Π.Ε. ΛΑΚΩΝΙΑΣ [7],Δήμος Μονεμβασιάς,,36.6286837,22.8765228
Μεγάλη Άμμος,Π.Ε. ΛΑΚΩΝΙΑΣ [7],Δήμος Μονεμβασιάς,,36.9737253,22.9909628
Μονεμβασιά,Π.Ε. ΛΑΚΩΝΙΑΣ [7],Δήμος Μονεμβασιάς,,36.687856,23.0505652
Νεάπολη,Π.Ε. ΛΑΚΩΝΙΑΣ [7],Δήμος Μονεμβασιάς,,36.5122479,23.0599479
Πλύτρα-Παχιάμμος,Π.Ε. ΛΑΚΩΝΙΑΣ [7],Δήμος Μονεμβασιάς,,36.6893676, 22.8365620 
Πορί,Π.Ε. ΛΑΚΩΝΙΑΣ [7],Δήμος Μονεμβασιάς,,36.7191236,23.0213454
Τηγάνια,Π.Ε. ΛΑΚΩΝΙΑΣ [7],Δήμος Μονεμβασιάς,,36.7388189,22.810254
Ανατολική Καλαμάτα 1/Ανάσταση,Π.Ε. ΜΕΣΣΗΝΙΑΣ [9],Δήμος Καλαμάτας,,37.0232461, 22.1327136 
Ανατολική Καλαμάτα 2-Τέρμα Ναυαρίνου,Π.Ε. ΜΕΣΣΗΝΙΑΣ [9],Δήμος Καλαμάτας,,,
Βέργα-Αλμυρός,Π.Ε. ΜΕΣΣΗΝΙΑΣ [9],Δήμος Καλαμάτας,,37.0090699, 22.1548181
Δυτική Καλάματα-Παραλία Κορδία,Π.Ε. ΜΕΣΣΗΝΙΑΣ [9],Δήμος Καλαμάτας,,,
Μικρή Μαντίνεια,Π.Ε. ΜΕΣΣΗΝΙΑΣ [9],Δήμος Καλαμάτας,,36.9826665,22.1498470
Μπούκα,Π.Ε. ΜΕΣΣΗΝΙΑΣ [9],Δήμος Μεσσήνης,,37.0144872,21.9936992
Γιάλοβα/Mandarin Oriental-Costa Navarino,Π.Ε. ΜΕΣΣΗΝΙΑΣ [9],Δήμος Πύλου-Νέστορος,,,
Γιάλοβα/W-Costa Navarino,Π.Ε. ΜΕΣΣΗΝΙΑΣ [9],Δήμος Πύλου-Νέστορος,,,
Dunes Beach-Costa Navarino,Π.Ε. ΜΕΣΣΗΝΙΑΣ [9],Δήμος Τριφυλίας,,,
Καϊάφας - Ζαχάρω 1,Π.Ε. ΗΛΕΙΑΣ [12],Δήμος Ζαχάρως,,,
Καϊάφας - Ζαχάρω 2,Π.Ε. ΗΛΕΙΑΣ [12],Δήμος Ζαχάρως,,,
Καϊάφας - Ζαχάρω 3,Π.Ε. ΗΛΕΙΑΣ [12],Δήμος Ζαχάρως,,,
Σκαφιδιά,Π.Ε. ΗΛΕΙΑΣ [12],Δήμος Πύργου,,37.6997127, 21.3175966
Κουρούτα,Π.Ε. ΗΛΕΙΑΣ [12],Δήμος Ήλιδας,,37.7694054,21.2938768
Αρκούδι,Π.Ε. ΗΛΕΙΑΣ [12],Δήμος Πηνειού,,37.8467984,21.1100941
Βαρθολομιό,Π.Ε. ΗΛΕΙΑΣ [12],Δήμος Πηνειού,,37.8610449,21.2087496
Γλύφα,Π.Ε. ΗΛΕΙΑΣ [12],Δήμος Πηνειού,,37.8423968,21.1443608
Κάστρο Κυλλήνης/Olympia Golden Beach Resort,Π.Ε. ΗΛΕΙΑΣ [12],Δήμος Ανδραβίδας-Κυλλήνης,,,
Κάστρο-Χρυσή Ακτή 2/Robinson Kyllini Βeach,Π.Ε. ΗΛΕΙΑΣ [12],Δήμος Ανδραβίδας-Κυλλήνης,,,
Λουτρά Κυλλήνης 1/Grecotel Olympia Oasis,Π.Ε. ΗΛΕΙΑΣ [12],Δήμος Ανδραβίδας-Κυλλήνης,,,
Λουτρά Κυλλήνης 2/Grecotel La Riviera,Π.Ε. ΗΛΕΙΑΣ [12],Δήμος Ανδραβίδας-Κυλλήνης,,,
Καλογριά/Kalogria Beach,Π.Ε. ΑΧΑΪΑΣ [4],Δήμος Δυτικής Αχαΐας,,38.1356467,21.3693842
Λακκόπετρα/Lakopetra Beach,Π.Ε. ΑΧΑΪΑΣ [4],Δήμος Δυτικής Αχαΐας,,,
Αλυκή,Π.Ε. ΑΧΑΪΑΣ [4],Δήμος Αιγιαλείας,,38.2610931,22.1091946
Ελαιώνας,Π.Ε. ΑΧΑΪΑΣ [4],Δήμος Αιγιαλείας,,38.1988131,22.1698114
Κάτω Βασιλική,Π.Ε. ΑΙΤΩΛΟΑΚΑΡΝΑΝΙΑΣ [2],Δήμος Ναυπακτίας,,38.3521586,21.6256144
Κρυονέρι,Π.Ε. ΑΙΤΩΛΟΑΚΑΡΝΑΝΙΑΣ [2],Δήμος Ναυπακτίας,,38.3450431,21.5938371
Κανάλι,Π.Ε. ΠΡΕΒΕΖΑΣ [9],Δήμος Πρέβεζας,,39.0692855,20.6967382
Κυανή,Π.Ε. ΠΡΕΒΕΖΑΣ [9],Δήμος Πρέβεζας,,,
Μέγα Άμμος,Π.Ε. ΠΡΕΒΕΖΑΣ [9],Δήμος Πρέβεζας,,,
Μονολίθι,Π.Ε. ΠΡΕΒΕΖΑΣ [9],Δήμος Πρέβεζας,,39.0482985,20.7051899
Πλατάνια,Π.Ε. ΠΡΕΒΕΖΑΣ [9],Δήμος Πρέβεζας,,39.2860447,20.7743806
Αμμουδιά,Π.Ε. ΠΡΕΒΕΖΑΣ [9],Δήμος Πάργας,,39.2389946,20.4819963
Βάλτος/Parga Beach Resort,Π.Ε. ΠΡΕΒΕΖΑΣ [9],Δήμος Πάργας,,,
Λούτσα,Π.Ε. ΠΡΕΒΕΖΑΣ [9],Δήμος Πάργας,,39.1968722,20.5309885
Λύχνος,Π.Ε. ΠΡΕΒΕΖΑΣ [9],Δήμος Πάργας,,39.2859972,20.4341077
Αλμυρός/Grecotel Costa Botanica,Π.Ε. ΚΕΡΚΥΡΑΣ [16],Δήμος Βόρειας Κέρκυρας,,,
Αγία Αικατερίνη,Π.Ε. ΚΕΡΚΥΡΑΣ [16],Δήμος Κεντρικής Κέρκυρας και Διαποντίων Νήσων,,39.6371387,19.8752161
Αίολος/Aeolos Beach Resort,Π.Ε. ΚΕΡΚΥΡΑΣ [16],Δήμος Κεντρικής Κέρκυρας και Διαποντίων Νήσων,,39.5684202,19.9092849
Αλυκές Ποταμού/Louis Kerkyra Golf,Π.Ε. ΚΕΡΚΥΡΑΣ [16],Δήμος Κεντρικής Κέρκυρας και Διαποντίων Νήσων,,,
Γλυφάδα/Domes of Corfu,Π.Ε. ΚΕΡΚΥΡΑΣ [16],Δήμος Κεντρικής Κέρκυρας και Διαποντίων Νήσων,,,
Δασιά/Ikos,Π.Ε. ΚΕΡΚΥΡΑΣ [16],Δήμος Κεντρικής Κέρκυρας και Διαποντίων Νήσων,,,
Δασιά/Ikos Odisia,Π.Ε. ΚΕΡΚΥΡΑΣ [16],Δήμος Κεντρικής Κέρκυρας και Διαποντίων Νήσων,,,
Δαφνίλα/Eva,Π.Ε. ΚΕΡΚΥΡΑΣ [16],Δήμος Κεντρικής Κέρκυρας και Διαποντίων Νήσων,,,
Κανόνι,Π.Ε. ΚΕΡΚΥΡΑΣ [16],Δήμος Κεντρικής Κέρκυρας και Διαποντίων Νήσων,,39.594145,19.9184102
Κομμένο/Corfu Imperial,Π.Ε. ΚΕΡΚΥΡΑΣ [16],Δήμος Κεντρικής Κέρκυρας και Διαποντίων Νήσων,,,
Κοντόκαλι/Kontokali Bay Resort,Π.Ε. ΚΕΡΚΥΡΑΣ [16],Δήμος Κεντρικής Κέρκυρας και Διαποντίων Νήσων,,,
Μπενίτσες,Π.Ε. ΚΕΡΚΥΡΑΣ [16],Δήμος Κεντρικής Κέρκυρας και Διαποντίων Νήσων,,39.5440169,19.9133239
Άγιος Ιωάννης Περιστερών/Marbella Corfu,Π.Ε. ΚΕΡΚΥΡΑΣ [16],Δήμος Νότιας Κέρκυρας,,,
Ίσσος/Sandy Beach Resort,Π.Ε. ΚΕΡΚΥΡΑΣ [16],Δήμος Νότιας Κέρκυρας,,,
Μωραΐτικα/Delfinia Hotels,Π.Ε. ΚΕΡΚΥΡΑΣ [16],Δήμος Νότιας Κέρκυρας,,,
Μωραΐτικα/Domes Miramare Corfu,Π.Ε. ΚΕΡΚΥΡΑΣ [16],Δήμος Νότιας Κέρκυρας,,,
Αη Γιάννης,Π.Ε. ΛΕΥΚΑΔΑΣ [2],Δήμος Λευκάδας,,,
Λευκάδα-Γύρα,Π.Ε. ΛΕΥΚΑΔΑΣ [2],Δήμος Λευκάδας,,,
Πόλη-Τα Δεξιά,Π.Ε. ΙΘΑΚΗΣ [1],Δήμος Ιθάκης,,,
Άβυθος,Π.Ε. ΚΕΦΑΛΟΝΙΑΣ [15],Δήμος Αργοστολίου,,38.1009143,20.5403857
Αϊ Χέλης,Π.Ε. ΚΕΦΑΛΟΝΙΑΣ [15],Δήμος Αργοστολίου,,38.1037072,20.5230274
Άμμες,Π.Ε. ΚΕΦΑΛΟΝΙΑΣ [15],Δήμος Αργοστολίου,,38.1092818,20.5098494
Αράγια Πόρου,Π.Ε. ΚΕΦΑΛΟΝΙΑΣ [15],Δήμος Αργοστολίου,,,
Λουρδάς,Π.Ε. ΚΕΦΑΛΟΝΙΑΣ [15],Δήμος Αργοστολίου,,38.1114918,20.6378749
Μακρύς Γιαλός,Π.Ε. ΚΕΦΑΛΟΝΙΑΣ [15],Δήμος Αργοστολίου,,38.1540106,20.4813803
Μεγάλη Άμμος,Π.Ε. ΚΕΦΑΛΟΝΙΑΣ [15],Δήμος Αργοστολίου,,,
Μπούκα Γραδάκια,Π.Ε. ΚΕΦΑΛΟΝΙΑΣ [15],Δήμος Αργοστολίου,,,
Πλατύς Γιαλός,Π.Ε. ΚΕΦΑΛΟΝΙΑΣ [15],Δήμος Αργοστολίου,,38.151713,20.4846317
Σκάλα 1,Π.Ε. ΚΕΦΑΛΟΝΙΑΣ [15],Δήμος Αργοστολίου,,38.0766213,20.7703458
Σκάλα 2,Π.Ε. ΚΕΦΑΛΟΝΙΑΣ [15],Δήμος Αργοστολίου,,38.076786,20.7701151
Πετανοί,Π.Ε. ΚΕΦΑΛΟΝΙΑΣ [15],Δήμος Ληξουρίου,,,
Λέπεδα,Π.Ε. ΚΕΦΑΛΟΝΙΑΣ [15],Δήμος Ληξουρίου,,38.1784842,20.4389234
Αντίσαμος,Π.Ε. ΚΕΦΑΛΟΝΙΑΣ [15],Δήμος Σάμης,,38.2608428,20.6734305
Μύρτος,Π.Ε. ΚΕΦΑΛΟΝΙΑΣ [15],Δήμος Σάμης,,38.3435134,20.5364578
Αλυκανάς 1,Π.Ε. ΖΑΚΥΝΘΟΥ [8],Δήμος Ζακύνθου,,37.8364491,20.7809897
Αλυκές 1,Π.Ε. ΖΑΚΥΝΘΟΥ [8],Δήμος Ζακύνθου,,37.8419478,20.7678147
Άμπουλα Τραγάκι,Π.Ε. ΖΑΚΥΝΘΟΥ [8],Δήμος Ζακύνθου,,,
Κατραγάκι/Eleon Grand Resort,Π.Ε. ΖΑΚΥΝΘΟΥ [8],Δήμος Ζακύνθου,,,
Μπανάνα Βασιλικού,Π.Ε. ΖΑΚΥΝΘΟΥ [8],Δήμος Ζακύνθου,,,
Μπούκα,Π.Ε. ΖΑΚΥΝΘΟΥ [8],Δήμος Ζακύνθου,,,
Τσιλιβί,Π.Ε. ΖΑΚΥΝΘΟΥ [8],Δήμος Ζακύνθου,,37.8155909,20.8719262
Ψαρού,Π.Ε. ΖΑΚΥΝΘΟΥ [8],Δήμος Ζακύνθου,,37.8367966,20.817147
Γραμμένο,Π.Ε. ΧΑΝΙΩΝ [43],Δήμος Καντάνου-Σελίνου,,35.2333193,23.6362367
Παχειά Άμμος,Π.Ε. ΧΑΝΙΩΝ [43],Δήμος Καντάνου-Σελίνου,,,
Σούγια,Π.Ε. ΧΑΝΙΩΝ [43],Δήμος Καντάνου-Σελίνου,,35.2492675,23.8111002
Χαλίκια,Π.Ε. ΧΑΝΙΩΝ [43],Δήμος Καντάνου-Σελίνου,,35.2335015,23.6865605
Καστέλι/Μαύρος Μόλος-Πλάκα,Π.Ε. ΧΑΝΙΩΝ [43],Δήμος Κισσάμου,,,
Κολυμβάρι/Euphoria Resort,Π.Ε. ΧΑΝΙΩΝ [43],Δήμος Πλατανιά,,,
Πλατανιάς Λιμανάκι/Porto Platanias Beach,Π.Ε. ΧΑΝΙΩΝ [43],Δήμος Πλατανιά,,,
Πλατανιάς/Minoa Palace Resort,Π.Ε. ΧΑΝΙΩΝ [43],Δήμος Πλατανιά,,,
Πλατανιάς/Γερανιώτης,Π.Ε. ΧΑΝΙΩΝ [43],Δήμος Πλατανιά,,,
Ραπανιανά/Cavo Spada,Π.Ε. ΧΑΝΙΩΝ [43],Δήμος Πλατανιά,,,
Αγ. Απόστολοι 1,Π.Ε. ΧΑΝΙΩΝ [43],Δήμος Χανίων,,35.5046124,23.9696188
Αγ. Απόστολοι 2,Π.Ε. ΧΑΝΙΩΝ [43],Δήμος Χανίων,,35.5046124,23.9696188
Αγ. Μαρίνα/Santa Marina,Π.Ε. ΧΑΝΙΩΝ [43],Δήμος Χανίων,,,
Αγ. Μαρίνα/The noverian Antama organic beach resort,Π.Ε. ΧΑΝΙΩΝ [43],Δήμος Χανίων,,,
Αγ. Μαρίνα/Almira Beach,Π.Ε. ΧΑΝΙΩΝ [43],Δήμος Χανίων,,,
Αγ. Ονούφριος,Π.Ε. ΧΑΝΙΩΝ [43],Δήμος Χανίων,,,
Βλητές,Π.Ε. ΧΑΝΙΩΝ [43],Δήμος Χανίων,,,
Καλαθάς,Π.Ε. ΧΑΝΙΩΝ [43],Δήμος Χανίων,,35.5485818,24.0833821
Καλαμάκι,Π.Ε. ΧΑΝΙΩΝ [43],Δήμος Χανίων,,35.5134754,23.9690781
Κλαδισός/Domes Zeen Chania,Π.Ε. ΧΑΝΙΩΝ [43],Δήμος Χανίων,,,
Μαράθι,Π.Ε. ΧΑΝΙΩΝ [43],Δήμος Χανίων,,35.4991849,24.1798266
Νέα Χώρα,Π.Ε. ΧΑΝΙΩΝ [43],Δήμος Χανίων,,35.5138793,24.009685
Σταλός,Π.Ε. ΧΑΝΙΩΝ [43],Δήμος Χανίων,,35.5034319,23.9349619
Σταυρός,Π.Ε. ΧΑΝΙΩΝ [43],Δήμος Χανίων,,35.5892287,24.0913821
Χρυσή Ακτή,Π.Ε. ΧΑΝΙΩΝ [43],Δήμος Χανίων,,35.5131677,23.9889583
Αλμυρίδα,Π.Ε. ΧΑΝΙΩΝ [43],Δήμος Αποκορώνου,,35.4491516,24.2008832
Γεωργιούπολη/Corissia Hotels,Π.Ε. ΧΑΝΙΩΝ [43],Δήμος Αποκορώνου,,,
Γεωργιούπολη/Corissia Princess,Π.Ε. ΧΑΝΙΩΝ [43],Δήμος Αποκορώνου,,,
Γεωργιούπολη/Fereniki Beach Hotels & Resorts,Π.Ε. ΧΑΝΙΩΝ [43],Δήμος Αποκορώνου,,,
Καβρός/Anemos Luxury Grand Resort,Π.Ε. ΧΑΝΙΩΝ [43],Δήμος Αποκορώνου,,,
Καβρός/Delfina Tropic Beach,Π.Ε. ΧΑΝΙΩΝ [43],Δήμος Αποκορώνου,,,
Καβρός/Eliros Mare,Π.Ε. ΧΑΝΙΩΝ [43],Δήμος Αποκορώνου,,,
Καβρός/Georgioupolis Resort,Π.Ε. ΧΑΝΙΩΝ [43],Δήμος Αποκορώνου,,,
Καβρός/La Mer Resort,Π.Ε. ΧΑΝΙΩΝ [43],Δήμος Αποκορώνου,,,
Καβρός/Mythos Palace,Π.Ε. ΧΑΝΙΩΝ [43],Δήμος Αποκορώνου,,,
Καβρός/Pepper sea club hotel,Π.Ε. ΧΑΝΙΩΝ [43],Δήμος Αποκορώνου,,,
Καβρός/Vantaris Palace,Π.Ε. ΧΑΝΙΩΝ [43],Δήμος Αποκορώνου,,,
Καβρός/Ventale Islande Breeze Resort,Π.Ε. ΧΑΝΙΩΝ [43],Δήμος Αποκορώνου,,,
Καλύβες Ξυδά,Π.Ε. ΧΑΝΙΩΝ [43],Δήμος Αποκορώνου,,,
Κυανή,Π.Ε. ΧΑΝΙΩΝ [43],Δήμος Αποκορώνου,,35.4660511,24.155463
Μαϊστράλι,Π.Ε. ΧΑΝΙΩΝ [43],Δήμος Αποκορώνου,,,
Περαστικός/Mare Monte,Π.Ε. ΧΑΝΙΩΝ [43],Δήμος Αποκορώνου,,,
Περαστικός/Pilot Beach,Π.Ε. ΧΑΝΙΩΝ [43],Δήμος Αποκορώνου,,,
Αδελιανός Κάμπος A/Aquila Rithymna Beach,Π.Ε. ΡΕΘΥΜΝΟΥ [23],Δήμος Ρεθύμνης,,,
Αδελιανός Κάμπος/Caramel Boutique,Π.Ε. ΡΕΘΥΜΝΟΥ [23],Δήμος Ρεθύμνης,,,
Πηγιανός Κάμπος/Amira Luxury Resort,Π.Ε. ΡΕΘΥΜΝΟΥ [23],Δήμος Ρεθύμνης,,,
Πηγιανός Κάμπος/Grecotel White Palace,Π.Ε. ΡΕΘΥΜΝΟΥ [23],Δήμος Ρεθύμνης,,,
Πλατανιάς Β/Minos Mare Resort,Π.Ε. ΡΕΘΥΜΝΟΥ [23],Δήμος Ρεθύμνης,,,
Ρέθυμνο 1/Aquila Porto Rethymno,Π.Ε. ΡΕΘΥΜΝΟΥ [23],Δήμος Ρεθύμνης,,,
Ρέθυμνο 1/Ilios beach,Π.Ε. ΡΕΘΥΜΝΟΥ [23],Δήμος Ρεθύμνης,,,
Ρέθυμνο 1/Kriti beach,Π.Ε. ΡΕΘΥΜΝΟΥ [23],Δήμος Ρεθύμνης,,,
Ρέθυμνο 2/Pearl Βeach,Π.Ε. ΡΕΘΥΜΝΟΥ [23],Δήμος Ρεθύμνης,,,
Ρέθυμνο 4-Μυσσίρια/Creta Palace,Π.Ε. ΡΕΘΥΜΝΟΥ [23],Δήμος Ρεθύμνης,,,
Ρέθυμνο/Ικόνες,Π.Ε. ΡΕΘΥΜΝΟΥ [23],Δήμος Ρεθύμνης,,,
Σκαλέτα/Creta Star,Π.Ε. ΡΕΘΥΜΝΟΥ [23],Δήμος Ρεθύμνης,,,
Σκαλέτα/Rethymno Mare,Π.Ε. ΡΕΘΥΜΝΟΥ [23],Δήμος Ρεθύμνης,,,
Λιανός Κάβος Λαυρίς/Iberostar Creta Panorama,Π.Ε. ΡΕΘΥΜΝΟΥ [23],Δήμος Μυλοποτάμου,,,
Λιανός Κάβος/Creta Marine,Π.Ε. ΡΕΘΥΜΝΟΥ [23],Δήμος Μυλοποτάμου,,,
Μπαλί Λιβάδι/Mitsis Bali Paradise,Π.Ε. ΡΕΘΥΜΝΟΥ [23],Δήμος Μυλοποτάμου,,,
Πάνορμο Λίμνη/Grecotel Club Marine Palace,Π.Ε. ΡΕΘΥΜΝΟΥ [23],Δήμος Μυλοποτάμου,,,
Αγ. Γαλήνη/Ύστερο Βαρκοτόπι,Π.Ε. ΡΕΘΥΜΝΟΥ [23],Δήμος Αγίου Βασιλείου,,,
Αγ. Παύλος,Π.Ε. ΡΕΘΥΜΝΟΥ [23],Δήμος Αγίου Βασιλείου,,35.1026409,24.5606954
Πλακιάς,Π.Ε. ΡΕΘΥΜΝΟΥ [23],Δήμος Αγίου Βασιλείου,,35.1915354,24.3954504
Πλακιάς/Alegria Beach Resort,Π.Ε. ΡΕΘΥΜΝΟΥ [23],Δήμος Αγίου Βασιλείου,,,
Ροδάκινο,Π.Ε. ΡΕΘΥΜΝΟΥ [23],Δήμος Αγίου Βασιλείου,,35.199493,24.3174652
Σούδα,Π.Ε. ΡΕΘΥΜΝΟΥ [23],Δήμος Αγίου Βασιλείου,,35.1928984,24.3650704
Αμμουδάρα 1/Agapi Beach,Π.Ε. ΗΡΑΚΛΕΙΟΥ [36],Δήμος Μαλεβιζίου,,,
Αμμουδάρα 4/Candia Maris,Π.Ε. ΗΡΑΚΛΕΙΟΥ [36],Δήμος Μαλεβιζίου,,,
Αμμουδάρα/Atlantica Akti Zeus,Π.Ε. ΗΡΑΚΛΕΙΟΥ [36],Δήμος Μαλεβιζίου,,,
Αμμουδάρα/Dessole Dolphin Bay,Π.Ε. ΗΡΑΚΛΕΙΟΥ [36],Δήμος Μαλεβιζίου,,,
Αμμουδάρα/Enorme Teatro Beach,Π.Ε. ΗΡΑΚΛΕΙΟΥ [36],Δήμος Μαλεβιζίου,,,
Αμμουδάρα/Lifestyle Beach,Π.Ε. ΗΡΑΚΛΕΙΟΥ [36],Δήμος Μαλεβιζίου,,,
Ελληνοπεράματα/Apollonia Beach,Π.Ε. ΗΡΑΚΛΕΙΟΥ [36],Δήμος Μαλεβιζίου,,,
Μαδέ/Athina Palace,Π.Ε. ΗΡΑΚΛΕΙΟΥ [36],Δήμος Μαλεβιζίου,,,
Φόδελε/Fodele Beach Hotel,Π.Ε. ΗΡΑΚΛΕΙΟΥ [36],Δήμος Μαλεβιζίου,,,
Αγ. Γεώργιος 1/ Knossos Royal,Π.Ε. ΗΡΑΚΛΕΙΟΥ [36],Δήμος Χερσοννήσου,,,
Αγ. Γεώργιος 2-Παναγία ρύζι /Annabelle Beach Resort,Π.Ε. ΗΡΑΚΛΕΙΟΥ [36],Δήμος Χερσοννήσου,,,
Αγ. Γεώργιος 3/Mitsis Cretan Village,Π.Ε. ΗΡΑΚΛΕΙΟΥ [36],Δήμος Χερσοννήσου,,,
Αγ. Γεώργιος 3/Mitsis Royal Mare,Π.Ε. ΗΡΑΚΛΕΙΟΥ [36],Δήμος Χερσοννήσου,,,
Αγ. Δημήτριος/Alexander Beach,Π.Ε. ΗΡΑΚΛΕΙΟΥ [36],Δήμος Χερσοννήσου,,,
Αγ. Δημήτριος/Cactus Beach Hotel,Π.Ε. ΗΡΑΚΛΕΙΟΥ [36],Δήμος Χερσοννήσου,,,
Αγία Πελαγία-Μενόπετρα/Akrogiali Beach,Π.Ε. ΗΡΑΚΛΕΙΟΥ [36],Δήμος Χερσοννήσου,,,
Αμνισός/Unique Blue Resort,Π.Ε. ΗΡΑΚΛΕΙΟΥ [36],Δήμος Χερσοννήσου,,,
Ανισσαράς/Lyttos Beach,Π.Ε. ΗΡΑΚΛΕΙΟΥ [36],Δήμος Χερσοννήσου,,,
Ανισσαράς/Mitsis Selection Laguna,Π.Ε. ΗΡΑΚΛΕΙΟΥ [36],Δήμος Χερσοννήσου,,,
Γούβες 1/Amirandes,Π.Ε. ΗΡΑΚΛΕΙΟΥ [36],Δήμος Χερσοννήσου,,,
"Δράπανος/Nana Golden Beach, Nana Princess",Π.Ε. ΗΡΑΚΛΕΙΟΥ [36],Δήμος Χερσοννήσου,,,
Εσταυρωμένος/Arina Beach Hotel,Π.Ε. ΗΡΑΚΛΕΙΟΥ [36],Δήμος Χερσοννήσου,,,
Καστρί/Creta Maris,Π.Ε. ΗΡΑΚΛΕΙΟΥ [36],Δήμος Χερσοννήσου,,,
Κλωντζάνη/Enorme Ammos Beach,Π.Ε. ΗΡΑΚΛΕΙΟΥ [36],Δήμος Χερσοννήσου,,,
Κλωντζάνη/Sirens Hotels,Π.Ε. ΗΡΑΚΛΕΙΟΥ [36],Δήμος Χερσοννήσου,,,
Κοκκίνη Χάνι/Knossos Beach,Π.Ε. ΗΡΑΚΛΕΙΟΥ [36],Δήμος Χερσοννήσου,,,
Κοκκίνη Χάνι/Mitsis Rinela,Π.Ε. ΗΡΑΚΛΕΙΟΥ [36],Δήμος Χερσοννήσου,,,
Κοκκίνη Χάνι/Themis Beach,Π.Ε. ΗΡΑΚΛΕΙΟΥ [36],Δήμος Χερσοννήσου,,,
Λιμένας Χερσονήσου 1/AKASHA Beach Hotel & Golden Beach,Π.Ε. ΗΡΑΚΛΕΙΟΥ [36],Δήμος Χερσοννήσου,,,
Λιμένας Χερσονήσου 5/Silva Beach Hotel,Π.Ε. ΗΡΑΚΛΕΙΟΥ [36],Δήμος Χερσοννήσου,,,
Ποταμός Α,Π.Ε. ΗΡΑΚΛΕΙΟΥ [36],Δήμος Χερσοννήσου,,,
Ποταμός/Cretan Malia Park,Π.Ε. ΗΡΑΚΛΕΙΟΥ [36],Δήμος Χερσοννήσου,,,
Σαραντάρι,Π.Ε. ΗΡΑΚΛΕΙΟΥ [36],Δήμος Χερσοννήσου,,,
Καλοί Λιμένες,Π.Ε. ΗΡΑΚΛΕΙΟΥ [36],Δήμος Φαιστού,,34.9317623,24.80192
Κόκκινος Πύργος,Π.Ε. ΗΡΑΚΛΕΙΟΥ [36],Δήμος Φαιστού,,35.0841348,24.7388051
Μάταλα,Π.Ε. ΗΡΑΚΛΕΙΟΥ [36],Δήμος Φαιστού,,34.9925331,24.7493779
Αγ. Νικόλαος 1/St. Nicolas Bay,Π.Ε. ΛΑΣΙΘΙΟΥ [51],Δήμος Αγίου Νικολάου,,,
Αγ. Νικόλαος 2/Minos Palace,Π.Ε. ΛΑΣΙΘΙΟΥ [51],Δήμος Αγίου Νικολάου,,,
Αγ. Νικόλαος 3/Minos Beach,Π.Ε. ΛΑΣΙΘΙΟΥ [51],Δήμος Αγίου Νικολάου,,,
Αγ. Παντελεήμονας,Π.Ε. ΛΑΣΙΘΙΟΥ [51],Δήμος Αγίου Νικολάου,,,
Αλμυρός,Π.Ε. ΛΑΣΙΘΙΟΥ [51],Δήμος Αγίου Νικολάου,,35.1756307,25.7078223
Αμμος / Μαρίνα,Π.Ε. ΛΑΣΙΘΙΟΥ [51],Δήμος Αγίου Νικολάου,,,
Αμμος/Δημοτική,Π.Ε. ΛΑΣΙΘΙΟΥ [51],Δήμος Αγίου Νικολάου,,35.187008,25.7157464
Αμμουδάρα,Π.Ε. ΛΑΣΙΘΙΟΥ [51],Δήμος Αγίου Νικολάου,,35.1652616,25.7107553
Αμμούδι/Niko Seaside Resort & InterContinental Crete,Π.Ε. ΛΑΣΙΘΙΟΥ [51],Δήμος Αγίου Νικολάου,,,
Δρήρος/Domes of Elounda,Π.Ε. ΛΑΣΙΘΙΟΥ [51],Δήμος Αγίου Νικολάου,,,
Ελούντα /Porto Elounda,Π.Ε. ΛΑΣΙΘΙΟΥ [51],Δήμος Αγίου Νικολάου,,,
Ελούντα 1/Elounda Blu,Π.Ε. ΛΑΣΙΘΙΟΥ [51],Δήμος Αγίου Νικολάου,,,
Ελούντα/Elounda Mare,Π.Ε. ΛΑΣΙΘΙΟΥ [51],Δήμος Αγίου Νικολάου,,,
Καραβοστάσι,Π.Ε. ΛΑΣΙΘΙΟΥ [51],Δήμος Αγίου Νικολάου,,35.1301732,25.7264079
Κιτροπλατεία,Π.Ε. ΛΑΣΙΘΙΟΥ [51],Δήμος Αγίου Νικολάου,,35.1890403,25.7209546
Μιραμπέλλο/Wyndham Grand Crete Mirabello Bay,Π.Ε. ΛΑΣΙΘΙΟΥ [51],Δήμος Αγίου Νικολάου,,,
Πηγαϊδάκια Ελούντας/Elounda Village,Π.Ε. ΛΑΣΙΘΙΟΥ [51],Δήμος Αγίου Νικολάου,,,
Πήλος/Istron Bay,Π.Ε. ΛΑΣΙΘΙΟΥ [51],Δήμος Αγίου Νικολάου,,,
Πλάκα/Phaea Blue,Π.Ε. ΛΑΣΙΘΙΟΥ [51],Δήμος Αγίου Νικολάου,,,
Πόρος 1/Elounda Bay Palace,Π.Ε. ΛΑΣΙΘΙΟΥ [51],Δήμος Αγίου Νικολάου,,,
Πόρος 2/Elounda Beach,Π.Ε. ΛΑΣΙΘΙΟΥ [51],Δήμος Αγίου Νικολάου,,,
Σπηλιάδα/Kalimera Kriti,Π.Ε. ΛΑΣΙΘΙΟΥ [51],Δήμος Αγίου Νικολάου,,,
Σχίσμα,Π.Ε. ΛΑΣΙΘΙΟΥ [51],Δήμος Αγίου Νικολάου,,35.19001,25.679599
Χαβάνια 1/Candia Park Village,Π.Ε. ΛΑΣΙΘΙΟΥ [51],Δήμος Αγίου Νικολάου,,,
Χαβάνια 2,Π.Ε. ΛΑΣΙΘΙΟΥ [51],Δήμος Αγίου Νικολάου,,35.213785,25.7113723
Χιόνα,Π.Ε. ΛΑΣΙΘΙΟΥ [51],Δήμος Αγίου Νικολάου,,,
Ανάληψη,Π.Ε. ΛΑΣΙΘΙΟΥ [51],Δήμος Σητείας,,35.0399497,25.9812819
Βάι/Φοινικόδασος,Π.Ε. ΛΑΣΙΘΙΟΥ [51],Δήμος Σητείας,,35.2554758,26.2603056
Βουρλιά,Π.Ε. ΛΑΣΙΘΙΟΥ [51],Δήμος Σητείας,,35.0409729,26.2335352
Κάτω Ζάκρος,Π.Ε. ΛΑΣΙΘΙΟΥ [51],Δήμος Σητείας,,35.0975254,26.262803
Κουρεμένος,Π.Ε. ΛΑΣΙΘΙΟΥ [51],Δήμος Σητείας,,35.2124878,26.2643794
Λαγούφα/Μικρή Πόλη Κρήτη,Π.Ε. ΛΑΣΙΘΙΟΥ [51],Δήμος Σητείας,,,
Λιμανάκι,Π.Ε. ΛΑΣΙΘΙΟΥ [51],Δήμος Σητείας,,,
Μακρύγιαλος-Λαγκούφα/Sunwing Makrigialos Beach,Π.Ε. ΛΑΣΙΘΙΟΥ [51],Δήμος Σητείας,,,
Σητεία 1-Γαλλικό/Sitia Beach,Π.Ε. ΛΑΣΙΘΙΟΥ [51],Δήμος Σητείας,,,
Σητεία 1/Γαλλικό,Π.Ε. ΛΑΣΙΘΙΟΥ [51],Δήμος Σητείας,,,
Χιόνα,Π.Ε. ΛΑΣΙΘΙΟΥ [51],Δήμος Σητείας,,35.1990676,26.2760241
Αγία Φωτιά,Π.Ε. ΛΑΣΙΘΙΟΥ [51],Δήμος Ιεράπετρας,,35.0244629,25.8747543
Γρα Λυγιά,Π.Ε. ΛΑΣΙΘΙΟΥ [51],Δήμος Ιεράπετρας,,35.0153689,25.6930915
Ιεράπετρα 1/Δημοτική,Π.Ε. ΛΑΣΙΘΙΟΥ [51],Δήμος Ιεράπετρας,,35.0080938,25.7391169
Ιεράπετρα 2/Δημοτική,Π.Ε. ΛΑΣΙΘΙΟΥ [51],Δήμος Ιεράπετρας,,35.0080938,25.7391169
Ιεράπετρα/Enorme Santanna Beach,Π.Ε. ΛΑΣΙΘΙΟΥ [51],Δήμος Ιεράπετρας,,,
Καθαράδες/Numo Ierapetra,Π.Ε. ΛΑΣΙΘΙΟΥ [51],Δήμος Ιεράπετρας,,,
Καθαράδες/Ostria Resort,Π.Ε. ΛΑΣΙΘΙΟΥ [51],Δήμος Ιεράπετρας,,,
Κακή Σκάλα/Avra Palm,Π.Ε. ΛΑΣΙΘΙΟΥ [51],Δήμος Ιεράπετρας,,,
Κοινοτική Πλαζ Μακρύγιαλου,Π.Ε. ΛΑΣΙΘΙΟΥ [51],Δήμος Ιεράπετρας,,,
Κουτσουνάρι 2/Kakkos Bay,Π.Ε. ΛΑΣΙΘΙΟΥ [51],Δήμος Ιεράπετρας,,,
Κουτσουνάρι-Αγ.Ιωάννης/Mare Blue & Village,Π.Ε. ΛΑΣΙΘΙΟΥ [51],Δήμος Ιεράπετρας,,,
Κουτσουνάρι/Coriva Beach-Pelagos Seaside,Π.Ε. ΛΑΣΙΘΙΟΥ [51],Δήμος Ιεράπετρας,,,
Κουτσουνάρι/Robinson Ierapetra,Π.Ε. ΛΑΣΙΘΙΟΥ [51],Δήμος Ιεράπετρας,,,
Μύρτος,Π.Ε. ΛΑΣΙΘΙΟΥ [51],Δήμος Ιεράπετρας,,35.0044953,25.5850509
Αμμούδες Φαληράκι/Mitsis Selection Alila,Π.Ε. ΡΟΔΟΥ [38],Δήμος Ρόδου,,,
Αμμούδες-Φαληράκι/ Elysium Resort,Π.Ε. ΡΟΔΟΥ [38],Δήμος Ρόδου,,,
Αμμούδες-Φαληράκι/Rodos Palladium,Π.Ε. ΡΟΔΟΥ [38],Δήμος Ρόδου,,,
Αφάντου 2/Irene Palace,Π.Ε. ΡΟΔΟΥ [38],Δήμος Ρόδου,,,
Αφάντου 2/Port Royal,Π.Ε. ΡΟΔΟΥ [38],Δήμος Ρόδου,,,
Βλήχα/Lindos Grand Resort,Π.Ε. ΡΟΔΟΥ [38],Δήμος Ρόδου,,,
Βληχά/Lindos Mare & Lindos Blu,Π.Ε. ΡΟΔΟΥ [38],Δήμος Ρόδου,,,
Γαλούνι Κοκκινόγια/Boutique 5 Hotel,Π.Ε. ΡΟΔΟΥ [38],Δήμος Ρόδου,,,
Γαλούνι Κοκκινόγια/Mayia Exclusive Resort,Π.Ε. ΡΟΔΟΥ [38],Δήμος Ρόδου,,,
Γαλούνι Κοκκινόγια/Mitsis Rodos Village,Π.Ε. ΡΟΔΟΥ [38],Δήμος Ρόδου,,,
Γαλούνι Κοκκινόγια/Princess Adriana Resort,Π.Ε. ΡΟΔΟΥ [38],Δήμος Ρόδου,,,
Γεννάδι/Gennadi Grand Resort,Π.Ε. ΡΟΔΟΥ [38],Δήμος Ρόδου,,36.0116117,27.9202439
Ιαλυσός/The Ixian Grand,Π.Ε. ΡΟΔΟΥ [38],Δήμος Ρόδου,,,
Ιξιά/Rhodes Βay Ηotel,Π.Ε. ΡΟΔΟΥ [38],Δήμος Ρόδου,,,
Καβουράκια/Ella Resorts,Π.Ε. ΡΟΔΟΥ [38],Δήμος Ρόδου,,,
Κιοτάρι 3/Rodos Princess Beach,Π.Ε. ΡΟΔΟΥ [38],Δήμος Ρόδου,,,
Κιοτάρι/Lindos Imperial Resort,Π.Ε. ΡΟΔΟΥ [38],Δήμος Ρόδου,,,
Κολύμπια Α-Λιμανάκι/Atlantica Imperial,Π.Ε. ΡΟΔΟΥ [38],Δήμος Ρόδου,,,
Κολύμπια/Mythos Beach,Π.Ε. ΡΟΔΟΥ [38],Δήμος Ρόδου,,,
Κολύμπια/Μικρή Πόλη,Π.Ε. ΡΟΔΟΥ [38],Δήμος Ρόδου,,,
Λάρδος 1/Lindos Princess Beach,Π.Ε. ΡΟΔΟΥ [38],Δήμος Ρόδου,,,
Λάρδος 3/Lindian Village,Π.Ε. ΡΟΔΟΥ [38],Δήμος Ρόδου,,,
Λαχανιά/Atrium Prestige,Π.Ε. ΡΟΔΟΥ [38],Δήμος Ρόδου,,,
Λίνδος/Aquagrand Beach,Π.Ε. ΡΟΔΟΥ [38],Δήμος Ρόδου,,,
Μεγάλη Γη/Atlantica Dreams Resort,Π.Ε. ΡΟΔΟΥ [38],Δήμος Ρόδου,,,
Πλημμύρι/Tui Magic Life Plimmiri by Atlantic,Π.Ε. ΡΟΔΟΥ [38],Δήμος Ρόδου,,,
Ρένη 1/Sunwing Kallithea Beach,Π.Ε. ΡΟΔΟΥ [38],Δήμος Ρόδου,,,
Ρένη Καλάθου/Atrium Palace,Π.Ε. ΡΟΔΟΥ [38],Δήμος Ρόδου,,,
Στεγνά/Porto Angeli,Π.Ε. ΡΟΔΟΥ [38],Δήμος Ρόδου,,,
Τριάντα Β/Sun Beach Resort,Π.Ε. ΡΟΔΟΥ [38],Δήμος Ρόδου,,,
Τριάντα/Electra Palace Resort,Π.Ε. ΡΟΔΟΥ [38],Δήμος Ρόδου,,,
Φαληράκι 1/Esperides,Π.Ε. ΡΟΔΟΥ [38],Δήμος Ρόδου,,,
Φαληράκι 2/Amada Colossos,Π.Ε. ΡΟΔΟΥ [38],Δήμος Ρόδου,,,
Φαληράκι 3/Esperos Palace,Π.Ε. ΡΟΔΟΥ [38],Δήμος Ρόδου,,,
Φαληράκι 4/Καλυψώ,Π.Ε. ΡΟΔΟΥ [38],Δήμος Ρόδου,,,
Φαληράκι 5/Blue Sea,Π.Ε. ΡΟΔΟΥ [38],Δήμος Ρόδου,,,
Φαληράκι 5/Epsilon,Π.Ε. ΡΟΔΟΥ [38],Δήμος Ρόδου,,,
Φαληράκι-Καστράκι/Grecotel Lux Me Dama Dama,Π.Ε. ΡΟΔΟΥ [38],Δήμος Ρόδου,,,
Άκρο Χελώνας/Robinson Club Daidalos,Π.Ε. ΚΩ [14],Δήμος Κω,,,
Βουνό/Mitsis,Π.Ε. ΚΩ [14],Δήμος Κω,,,
Γουρνιάτης/Atlantica Beach Resort Kos,Π.Ε. ΚΩ [14],Δήμος Κω,,,
Κέφαλος/Ikos Aria,Π.Ε. ΚΩ [14],Δήμος Κω,,,
Κρητικά-Atlantis Hotel,Π.Ε. ΚΩ [14],Δήμος Κω,,,
Λάμπη/Aqua Blu Hotel,Π.Ε. ΚΩ [14],Δήμος Κω,,,
Λάμπη/Blue Lagoon,Π.Ε. ΚΩ [14],Δήμος Κω,,,
Λάμπη/Pelagos Suites Hotel,Π.Ε. ΚΩ [14],Δήμος Κω,,,
Μαρμάρι/Caravia Beach,Π.Ε. ΚΩ [14],Δήμος Κω,,,
Μαρμάρι/Casa Paradiso,Π.Ε. ΚΩ [14],Δήμος Κω,,,
Μπαμιαλίκι/Astir Odysseus,Π.Ε. ΚΩ [14],Δήμος Κω,,,
Πευκοκεφαλή-Αγ. Φωκάς/Oceanis,Π.Ε. ΚΩ [14],Δήμος Κω,,,
Τρούλος/Neptune Hotels,Π.Ε. ΚΩ [14],Δήμος Κω,,,
Ψαλίδι/Mitsis Ramira,Π.Ε. ΚΩ [14],Δήμος Κω,,,
Δελαβόγια/Aneroussa Beach,Π.Ε. ΑΝΔΡΟΥ [1],Δήμος Άνδρου,,,
Αγκαθωπές,Π.Ε. ΣΥΡΟΥ [7],Δήμος Σύρου-Ερμούπολης,,37.3853571,24.8810941
Αζόλιμνος,Π.Ε. ΣΥΡΟΥ [7],Δήμος Σύρου-Ερμούπολης,,37.4121925,24.9630505
Βάρη,Π.Ε. ΣΥΡΟΥ [7],Δήμος Σύρου-Ερμούπολης,,37.3983488,24.9467109
Γαλησσάς,Π.Ε. ΣΥΡΟΥ [7],Δήμος Σύρου-Ερμούπολης,,37.4212437,24.8818173
Κίνι,Π.Ε. ΣΥΡΟΥ [7],Δήμος Σύρου-Ερμούπολης,,37.4466303,24.9011205
Μεγάλος Γυαλός,Π.Ε. ΣΥΡΟΥ [7],Δήμος Σύρου-Ερμούπολης,,,
Φοίνικας,Π.Ε. ΣΥΡΟΥ [7],Δήμος Σύρου-Ερμούπολης,,37.3993744,24.8789018
Γιαλισκάρι,Π.Ε. ΚΕΑΣ-ΚΥΘΝΟΥ [4],Δήμος Κέας,,37.6625231,24.3215201
Κούνδουρος,Π.Ε. ΚΕΑΣ-ΚΥΘΝΟΥ [4],Δήμος Κέας,,37.5766975,24.2824079
Οτζιάς,Π.Ε. ΚΕΑΣ-ΚΥΘΝΟΥ [4],Δήμος Κέας,,37.6751917,24.3521955
Ποίσσες,Π.Ε. ΚΕΑΣ-ΚΥΘΝΟΥ [4],Δήμος Κέας,,37.5991712,24.278406
Λιβάδια,Π.Ε. ΠΑΡΟΥ [4],Δήμος Πάρου,,37.1198491,25.216979
Λογαράς,Π.Ε. ΠΑΡΟΥ [4],Δήμος Πάρου,,37.0324307,25.2545794
Μάρπησσα/Χρυσή Ακτή,Π.Ε. ΠΑΡΟΥ [4],Δήμος Πάρου,,,
Πούντα,Π.Ε. ΠΑΡΟΥ [4],Δήμος Πάρου,,37.0381396,25.1013183
Αγ. Γεώργιος,Π.Ε. ΘΗΡΑΣ [10],Δήμος Θήρας,,36.461866,25.3835979
Βλυχάδα,Π.Ε. ΘΗΡΑΣ [10],Δήμος Θήρας,,36.3383989,25.4351909
Καμάρι 1,Π.Ε. ΘΗΡΑΣ [10],Δήμος Θήρας,,36.3761502,25.4806336
Καμάρι 2,Π.Ε. ΘΗΡΑΣ [10],Δήμος Θήρας,,36.3761502,25.4806336
Μονόλιθος,Π.Ε. ΘΗΡΑΣ [10],Δήμος Θήρας,,36.410413,25.4811567
Περίβολος,Π.Ε. ΘΗΡΑΣ [10],Δήμος Θήρας,,36.3441005,25.4628175
Περίσσα,Π.Ε. ΘΗΡΑΣ [10],Δήμος Θήρας,,36.3569274,25.4738666
Μαγγανάρι,Π.Ε. ΘΗΡΑΣ [10],Δήμος Ιητών,,36.6609747,25.3734866
Μυλοπόταμος,Π.Ε. ΘΗΡΑΣ [10],Δήμος Ιητών,,36.7145676,25.2987152
Όρμος,Π.Ε. ΘΗΡΑΣ [10],Δήμος Ιητών,,36.6911687,25.3858888
Καμάρες,Π.Ε. ΜΗΛΟΥ [2],Δήμος Σίφνου,,36.9884884,24.6753626
Πλατύς Γιαλός,Π.Ε. ΜΗΛΟΥ [2],Δήμος Σίφνου,,36.9318485,24.7290372
Γλυκόριζα,Π.Ε. ΣΑΜΟΥ [3],Δήμος Ανατολικής Σάμου,,,
Δόρυσσα/Ποτοκάκι,Π.Ε. ΣΑΜΟΥ [3],Δήμος Ανατολικής Σάμου,,37.6899296,26.9283654
Ποτάμι,Π.Ε. ΣΑΜΟΥ [3],Δήμος Δυτικής Σάμου,,37.7897959,26.6661112
Αγ. Παρασκευή,Π.Ε. ΧΙΟΥ [15],Δήμος Χίου,,38.3803021,26.0713574
Αγ. Φωτεινή,Π.Ε. ΧΙΟΥ [15],Δήμος Χίου,,,
Αγιάσματα,Π.Ε. ΧΙΟΥ [15],Δήμος Χίου,,38.5866437,25.9369965
Άγιος Ισίδωρος,Π.Ε. ΧΙΟΥ [15],Δήμος Χίου,,38.5039396,25.8574206
Γιόσωνας,Π.Ε. ΧΙΟΥ [15],Δήμος Χίου,,38.5655461,26.076797
Γωνιά,Π.Ε. ΧΙΟΥ [15],Δήμος Χίου,,38.3703735,26.1376638
Δασκαλόπετρα,Π.Ε. ΧΙΟΥ [15],Δήμος Χίου,,38.422223,26.1342503
Δημοτική Πλαζ Χίου,Π.Ε. ΧΙΟΥ [15],Δήμος Χίου,,,
Καρφάς,Π.Ε. ΧΙΟΥ [15],Δήμος Χίου,,38.3202789,26.1519534
Κοντάρι,Π.Ε. ΧΙΟΥ [15],Δήμος Χίου,,,
Κώμη,Π.Ε. ΧΙΟΥ [15],Δήμος Χίου,,38.2020603,26.042852
Λήμνος,Π.Ε. ΧΙΟΥ [15],Δήμος Χίου,,38.4734892,25.9106765
Λιθί,Π.Ε. ΧΙΟΥ [15],Δήμος Χίου,,38.3311315,26.0003043
Μέγας Λιμιώνας,Π.Ε. ΧΙΟΥ [15],Δήμος Χίου,,38.3003573,26.1417853
Όρμος Λω,Π.Ε. ΧΙΟΥ [15],Δήμος Χίου,,,
Αγ. Ισίδωρος,Π.Ε. ΛΕΣΒΟΥ [31],Δήμος Μυτιλήνης,,38.9685447,26.3928403
Άγιος Ερμογένης,Π.Ε. ΛΕΣΒΟΥ [31],Δήμος Μυτιλήνης,,39.0164554,26.5424351
Βοτσαλάκια - Σκάλα Νέων Κυδωνιών,Π.Ε. ΛΕΣΒΟΥ [31],Δήμος Μυτιλήνης,,,
Ευρειακή Γέρας,Π.Ε. ΛΕΣΒΟΥ [31],Δήμος Μυτιλήνης,,,
Κανόνι Θέρμης,Π.Ε. ΛΕΣΒΟΥ [31],Δήμος Μυτιλήνης,,39.1750516,26.50382
Κράτηγος - 1η Καντίνα,Π.Ε. ΛΕΣΒΟΥ [31],Δήμος Μυτιλήνης,,,
Κράτηγος - 2η Καντίνα,Π.Ε. ΛΕΣΒΟΥ [31],Δήμος Μυτιλήνης,,,
Παραλία Χαραμίδα,Π.Ε. ΛΕΣΒΟΥ [31],Δήμος Μυτιλήνης,,39.0216202, 26.5564404
Σκάλα Μυστεγνών,Π.Ε. ΛΕΣΒΟΥ [31],Δήμος Μυτιλήνης,,,
Ταρσανάς,Π.Ε. ΛΕΣΒΟΥ [31],Δήμος Μυτιλήνης,,,
Τάρτι,Π.Ε. ΛΕΣΒΟΥ [31],Δήμος Μυτιλήνης,,38.9771998,26.4902312
Τσαμάκια,Π.Ε. ΛΕΣΒΟΥ [31],Δήμος Μυτιλήνης,,39.1089323,26.5630325
Φάρα,Π.Ε. ΛΕΣΒΟΥ [31],Δήμος Μυτιλήνης,,38.9750473,26.4828277
Χαραμίδα,Π.Ε. ΛΕΣΒΟΥ [31],Δήμος Μυτιλήνης,,39.0219624,26.5489274
Άναξος,Π.Ε. ΛΕΣΒΟΥ [31],Δήμος Δυτικής Λέσβου,,39.3176504,26.1481914
Βαθύ Κριτήρι,Π.Ε. ΛΕΣΒΟΥ [31],Δήμος Δυτικής Λέσβου,,39.102891,26.0871136
Βατερά,Π.Ε. ΛΕΣΒΟΥ [31],Δήμος Δυτικής Λέσβου,,39.020367,26.1975125
Γαβαθάς,Π.Ε. ΛΕΣΒΟΥ [31],Δήμος Δυτικής Λέσβου,,39.2407581,25.9831856
Εφταλού/Αγ. Ανάργυροι,Π.Ε. ΛΕΣΒΟΥ [31],Δήμος Δυτικής Λέσβου,,,
Κάγια,Π.Ε. ΛΕΣΒΟΥ [31],Δήμος Δυτικής Λέσβου,,39.3741325,26.311716
Καλό Λιμάνι,Π.Ε. ΛΕΣΒΟΥ [31],Δήμος Δυτικής Λέσβου,,39.2934011,26.0435625
Μεντούσι,Π.Ε. ΛΕΣΒΟΥ [31],Δήμος Δυτικής Λέσβου,,,
Μόλυβος,Π.Ε. ΛΕΣΒΟΥ [31],Δήμος Δυτικής Λέσβου,,39.3685079,26.1737266
Νυφίδα,Π.Ε. ΛΕΣΒΟΥ [31],Δήμος Δυτικής Λέσβου,,39.0863529,26.1327308
Πέτρα,Π.Ε. ΛΕΣΒΟΥ [31],Δήμος Δυτικής Λέσβου,,39.3273701,26.1755616
Πλαζ Σιγρίου,Π.Ε. ΛΕΣΒΟΥ [31],Δήμος Δυτικής Λέσβου,,,
Σκάλα Ερεσού,Π.Ε. ΛΕΣΒΟΥ [31],Δήμος Δυτικής Λέσβου,,39.1351461,25.931289
Σκάλα Καλλονής,Π.Ε. ΛΕΣΒΟΥ [31],Δήμος Δυτικής Λέσβου,,39.2060616,26.2106501
Σκάλα Πολιχνίτου,Π.Ε. ΛΕΣΒΟΥ [31],Δήμος Δυτικής Λέσβου,,39.1006143,26.1692052
Ταβάρι,Π.Ε. ΛΕΣΒΟΥ [31],Δήμος Δυτικής Λέσβου,,39.1089749,25.9920446
Τσόνια,Π.Ε. ΛΕΣΒΟΥ [31],Δήμος Δυτικής Λέσβου,,39.3688513,26.3549132
Άγιος Ιωάννης,Π.Ε. ΛΗΜΝΟΥ [5],Δήμος Λήμνου,,39.9085483,25.0720659
Εβγάτης-Ζεματάς,Π.Ε. ΛΗΜΝΟΥ [5],Δήμος Λήμνου,,39.8498958,25.125289
Θάνος,Π.Ε. ΛΗΜΝΟΥ [5],Δήμος Λήμνου,,39.8554827,25.0865288
Πλατύ,Π.Ε. ΛΗΜΝΟΥ [5],Δήμος Λήμνου,,39.8606708,25.0722356
Ρηχά Νερά,Π.Ε. ΛΗΜΝΟΥ [5],Δήμος Λήμνου,,39.8854594,25.0627838
Μαρίνα Πόρτο Καρράς,Π.Ε. ΧΑΛΚΙΔΙΚΗΣ [3],Δήμος Σιθωνίας,,,
Μαρίνα Σάνη,Π.Ε. ΧΑΛΚΙΔΙΚΗΣ [3],Δήμος Κασσάνδρας,,40.0985679,23.3107996
Μαρίνα Miraggio,Π.Ε. ΧΑΛΚΙΔΙΚΗΣ [3],Δήμος Κασσάνδρας,,39.9290089,23.7072684
Τουριστικό Καταφύγιο Λιναριάς Σκύρου,Π.Ε. ΕΥΒΟΙΑΣ [1],Δήμος Σκύρου,,,
Μαρίνα Κλεοπάτρα,Π.Ε. ΑΙΤΩΛΟΑΚΑΡΝΑΝΙΑΣ [1],Δήμος Ακτίου-Βόνιτσας,,,
Μαρίνα Πρέβεζας,Π.Ε. ΠΡΕΒΕΖΑΣ [1],Δήμος Πρέβεζας,,38.9611534,20.7574329
Μαρίνα Γουβιών,Π.Ε. ΚΕΡΚΥΡΑΣ [2],Δήμος Κεντρικής Κέρκυρας και Διαποντίων Νήσων,,39.6486301,19.856568
Μαρίνα Μπενιτσών,Π.Ε. ΚΕΡΚΥΡΑΣ [2],Δήμος Κεντρικής Κέρκυρας και Διαποντίων Νήσων,,39.5465929,19.9135257
Μαρίνα Λευκάδας,Π.Ε. ΛΕΥΚΑΔΑΣ [1],Δήμος Λευκάδας,,38.8289093,20.7110996
Μαρίνα Αγ. Νικολάου,Π.Ε. ΛΑΣΙΘΙΟΥ [1],Δήμος Αγ. Νικολάου,,35.1865745,25.7184673
Μαρίνα Ρόδου,Π.Ε. ΡΟΔΟΥ [1],Δήμος Ρόδου,,36.4084386,28.229251
Μαρίνα Κω,Π.Ε. ΚΩ [1],Δήμος Κω,,36.8903958,27.301741
Μαρίνα Λέρου,Π.Ε. ΚΑΛΥΜΝΟΥ [1],Δήμος Λέρου,,37.1565812,26.8517541
Ikos Blue,Π.Ε. ΧΑΛΚΙΔΙΚΗΣ [14],All Inblusive [14],,,
Ikos Grecale,Π.Ε. ΧΑΛΚΙΔΙΚΗΣ [14],All Inblusive [14],,,
Ikos Maestro,Π.Ε. ΧΑΛΚΙΔΙΚΗΣ [14],All Inblusive [14],,,
Ikos Mare,Π.Ε. ΧΑΛΚΙΔΙΚΗΣ [14],All Inblusive [14],,,
Ikos OdySea,Π.Ε. ΧΑΛΚΙΔΙΚΗΣ [14],All Inblusive [14],,,
Ikos Wind,Π.Ε. ΧΑΛΚΙΔΙΚΗΣ [14],All Inblusive [14],,,
Rivammos,Π.Ε. ΧΑΛΚΙΔΙΚΗΣ [14],All Inblusive [14],,,
Sani Cat,Π.Ε. ΧΑΛΚΙΔΙΚΗΣ [14],All Inblusive [14],,,
Sani Dream,Π.Ε. ΧΑΛΚΙΔΙΚΗΣ [14],All Inblusive [14],,,
Sani Grace,Π.Ε. ΧΑΛΚΙΔΙΚΗΣ [14],All Inblusive [14],,,
Sani Riva,Π.Ε. ΧΑΛΚΙΔΙΚΗΣ [14],All Inblusive [14],,,
Sani Swan,Π.Ε. ΧΑΛΚΙΔΙΚΗΣ [14],All Inblusive [14],,,
Sani Vibe,Π.Ε. ΧΑΛΚΙΔΙΚΗΣ [14],All Inblusive [14],,,
Styx,Π.Ε. ΧΑΛΚΙΔΙΚΗΣ [14],All Inblusive [14],,,
Oaseas,Π.Ε. ΚΕΡΚΥΡΑΣ [2],GENESEAS Yachting [2],,,
Feeling Nauti,Π.Ε. ΚΕΡΚΥΡΑΣ [2],GENESEAS Yachting [2],,,
